[{"OBJECT_NAME":"LYNK TOWER 5","OBJECT_ID":"2024-043Z","EPOCH":"2026-03-09T22:11:51.175104","MEAN_MOTION":15.29454506,"ECCENTRICITY":0.00104056,"INCLINATION":97.5458,"RA_OF_ASC_NODE":204.7305,"ARG_OF_PERICENTER":234.6422,"MEAN_ANOMALY":125.3846,"EPHEMERIS_TYPE":0,"CLASSIFICATION_TYPE":"U","NORAD_CAT_ID":59121,"ELEMENT_SET_NO":999,"REV_AT_EPOCH":11186,"BSTAR":0.00031901545,"MEAN_MOTION_DOT":9.048e-5,"MEAN_MOTION_DDOT":0},{"OBJECT_NAME":"STARLINK-34545","OBJECT_ID":"2025-167AD","EPOCH":"2026-03-09T07:12:22.357728","MEAN_MOTION":15.30141572,"ECCENTRICITY":0.00010135,"INCLINATION":53.1607,"RA_OF_ASC_NODE":28.2176,"ARG_OF_PERICENTER":74.9849,"MEAN_ANOMALY":285.1264,"EPHEMERIS_TYPE":0,"CLASSIFICATION_TYPE":"U","NORAD_CAT_ID":65105,"ELEMENT_SET_NO":999,"REV_AT_EPOCH":3342,"BSTAR":0.00092650801,"MEAN_MOTION_DOT":0.00027132,"MEAN_MOTION_DDOT":0}]
